NORAD_CAT_ID,OBJECT_NAME,OBJECT_TYPE,EPOCH,MEAN_MOTION,ECCENTRICITY,INCLINATION,RA_OF_ASC_NODE,ARG_OF_PERICENTER,MEAN_ANOMALY,BSTAR,MEAN_MOTION_DOT,MEAN_MOTION_DDOT,TLE_LINE0,TLE_LINE1,TLE_LINE2,SEMIMAJOR_AXIS,PERIOD,APOGEE,PERIGEE,DECAYED
53244.0,STARLINK-4125,PAYLOAD,2024-06-08 19:34:50,15.08850189,0.0001293,53.2172,192.2121,77.0433,283.0703,-4.5359e-06,-3.6e-06,0.0,0 STARLINK-4125,1 53244U 22086C   24160.81586135 -.00000360  00000-0 -45359-5 0  9998,2 53244  53.2172 192.2121 0001293  77.0433 283.0703 15.08850189104796,6917.849,95.437,540.609,538.82,0.0
53244.0,STARLINK-4125,PAYLOAD,2024-06-09 01:56:23,15.08837701,0.000132,53.2167,191.0233,87.1325,272.9818,0.00015813,2.229e-05,0.0,0 STARLINK-4125,1 53244U 22086C   24161.08082943  .00002229  00000-0  15813-3 0  9990,2 53244  53.2167 191.0233 0001320  87.1325 272.9818 15.08837701104333,6917.887,95.438,540.666,538.839,0.0
53244.0,STARLINK-4125,PAYLOAD,2024-06-09 08:17:56,15.08838826,0.0001256,53.2142,189.8345,85.0338,275.0797,0.00014906,2.085e-05,0.0,0 STARLINK-4125,1 53244U 22086C   24161.34579078  .00002085  00000-0  14906-3 0  9991,2 53244  53.2142 189.8345 0001256  85.0338 275.0797 15.08838826104872,6917.884,95.438,540.618,538.88,0.0
53244.0,STARLINK-4125,PAYLOAD,2024-06-09 19:25:38,15.0884225,0.0001339,53.2155,187.7526,84.4978,275.6167,0.00011026,1.467e-05,0.0,0 STARLINK-4125,1 53244U 22086C   24161.80946951  .00001467  00000-0  11026-3 0  9993,2 53244  53.2155 187.7526 0001339  84.4978 275.6167 15.08842250104940,6917.874,95.437,540.665,538.812,0.0
53244.0,STARLINK-4125,PAYLOAD,2024-06-10 04:57:56,15.0884585,0.0001461,53.2157,185.9694,80.446,279.6697,6.9762e-05,8.23e-06,0.0,0 STARLINK-4125,1 53244U 22086C   24162.20690731  .00000823  00000-0  69762-4 0  9996,2 53244  53.2157 185.9694 0001461  80.4460 279.6697 15.08845850104509,6917.863,95.437,540.738,538.717,0.0
53244.0,STARLINK-4125,PAYLOAD,2024-06-10 08:08:43,15.08844351,0.0001155,53.2168,185.3742,83.552,276.5604,8.8748e-05,1.125e-05,0.0,0 STARLINK-4125,1 53244U 22086C   24162.33938685  .00001125  00000-0  88748-4 0  9994,2 53244  53.2168 185.3742 0001155  83.5520 276.5604 15.08844351105027,6917.867,95.437,540.531,538.933,0.0
53244.0,STARLINK-4125,PAYLOAD,2024-06-11 07:59:29,15.08842985,0.0001357,53.2162,180.9138,80.2798,279.8347,0.00010974,1.459e-05,0.0,0 STARLINK-4125,1 53244U 22086C   24163.33298548  .00001459  00000-0  10974-3 0  9997,2 53244  53.2162 180.9138 0001357  80.2798 279.8347 15.08842985105173,6917.871,95.437,540.675,538.798,0.0
53244.0,STARLINK-4125,PAYLOAD,2024-06-12 04:39:30,15.08840171,0.000136,53.2162,177.0484,79.9,280.2145,5.7136e-05,6.22e-06,0.0,0 STARLINK-4125,1 53244U 22086C   24164.19410794  .00000622  00000-0  57136-4 0  9994,2 53244  53.2162 177.0484 0001360  79.9000 280.2145 15.08840171104805,6917.88,95.438,540.686,538.804,0.0
53244.0,STARLINK-4125,PAYLOAD,2024-06-12 06:14:54,15.08840716,0.0001372,53.2163,176.7511,79.9347,280.18,5.6901e-05,6.18e-06,0.0,0 STARLINK-4125,1 53244U 22086C   24164.26034740  .00000618  00000-0  56901-4 0  9999,2 53244  53.2163 176.7511 0001372  79.9347 280.1800 15.08840716105319,6917.878,95.438,540.692,538.794,0.0
53244.0,STARLINK-4125,PAYLOAD,2024-06-12 17:22:36,15.08838526,0.000135,53.2158,174.6697,78.2202,281.8942,3.3958e-05,2.53e-06,0.0,0 STARLINK-4125,1 53244U 22086C   24164.72402863  .00000253  00000-0  33958-4 0  9997,2 53244  53.2158 174.6697 0001350  78.2202 281.8942 15.08838526105381,6917.885,95.438,540.684,538.816,0.0
53244.0,STARLINK-4125,PAYLOAD,2024-06-13 09:16:27,15.08837893,0.0001355,53.2156,171.6962,79.0316,281.0828,2.0977e-05,4.6e-07,0.0,0 STARLINK-4125,1 53244U 22086C   24165.38642983  .00000046  00000-0  20977-4 0  9996,2 53244  53.2156 171.6962 0001355  79.0316 281.0828 15.08837893104987,6917.887,95.438,540.689,538.814,0.0
53244.0,STARLINK-4125,PAYLOAD,2024-06-14 07:31:51,15.08837323,0.0001354,53.2158,167.5332,79.7728,280.3417,3.1466e-05,2.13e-06,0.0,0 STARLINK-4125,1 53244U 22086C   24166.31379141  .00000213  00000-0  31466-4 0  9994,2 53244  53.2158 167.5332 0001354  79.7728 280.3417 15.08837323105623,6917.889,95.438,540.69,538.817,0.0
53244.0,STARLINK-4125,PAYLOAD,2024-06-14 17:04:10,15.08838277,0.000135,53.2158,165.7492,83.0291,277.0854,4.783e-05,4.73e-06,0.0,0 STARLINK-4125,1 53244U 22086C   24166.71123089  .00000473  00000-0  47830-4 0  9996,2 53244  53.2158 165.7492 0001350  83.0291 277.0854 15.08838277105682,6917.886,95.438,540.685,538.817,0.0
53244.0,STARLINK-4125,PAYLOAD,2024-06-15 07:22:38,15.08839879,0.0001345,53.2158,163.0724,84.1587,275.9558,7.7738e-05,9.5e-06,0.0,0 STARLINK-4125,1 53244U 22086C   24167.30738971  .00000950  00000-0  77738-4 0  9994,2 53244  53.2158 163.0724 0001345  84.1587 275.9558 15.08839879105772,6917.881,95.438,540.676,538.815,0.0
53244.0,STARLINK-4125,PAYLOAD,2024-06-15 16:54:57,15.08840164,0.0001369,53.2161,161.2888,85.6233,274.4916,6.6054e-05,7.63e-06,0.0,0 STARLINK-4125,1 53244U 22086C   24167.70483030  .00000763  00000-0  66054-4 0  9992,2 53244  53.2161 161.2888 0001369  85.6233 274.4916 15.08840164105835,6917.88,95.438,540.692,538.798,0.0
53244.0,STARLINK-4125,PAYLOAD,2024-06-16 07:13:25,15.08842091,0.0001368,53.2161,158.6122,87.1683,272.9465,7.3062e-05,8.75e-06,0.0,0 STARLINK-4125,1 53244U 22086C   24168.30098922  .00000875  00000-0  73062-4 0  9992,2 53244  53.2161 158.6122 0001368  87.1683 272.9465 15.08842091105924,6917.874,95.437,540.685,538.793,0.0
53244.0,STARLINK-4125,PAYLOAD,2024-06-16 23:07:17,15.08840351,0.000139,53.216,155.6388,86.9607,273.1544,3.4808e-05,2.66e-06,0.0,0 STARLINK-4125,1 53244U 22086C   24168.96339131  .00000266  00000-0  34808-4 0  9993,2 53244  53.2160 155.6388 0001390  86.9607 273.1544 15.08840351106022,6917.879,95.438,540.706,538.783,0.0
53244.0,STARLINK-4125,PAYLOAD,2024-06-17 16:36:31,15.08837225,0.0001381,53.2155,152.3667,90.7581,269.357,1.68e-05,-2.1e-07,0.0,0 STARLINK-4125,1 53244U 22086C   24169.69203324 -.00000021  00000-0  16800-4 0  9990,2 53244  53.2155 152.3667 0001381  90.7581 269.3570 15.08837225105632,6917.889,95.438,540.709,538.799,0.0
53244.0,STARLINK-4125,PAYLOAD,2024-06-18 08:30:23,15.08836971,0.0001429,53.2155,149.3932,91.0287,269.0869,1.5552e-05,-4e-07,0.0,0 STARLINK-4125,1 53244U 22086C   24170.35443463 -.00000040  00000-0  15552-4 0  9999,2 53244  53.2155 149.3932 0001429  91.0287 269.0869 15.08836971106235,6917.89,95.438,540.743,538.766,0.0
53244.0,STARLINK-4125,PAYLOAD,2024-06-19 05:10:22,15.08850435,0.0001406,53.2155,145.5277,89.4505,270.6649,0.00012599,1.718e-05,0.0,0 STARLINK-4125,1 53244U 22086C   24171.21553993  .00001718  00000-0  12599-3 0  9994,2 53244  53.2155 145.5277 0001406  89.4505 270.6649 15.08850435105867,6917.848,95.437,540.686,538.741,0.0
53244.0,STARLINK-4125,PAYLOAD,2024-06-19 21:04:15,15.08832362,0.0001769,53.2172,142.5557,92.7306,267.3889,2.424e-05,9.8e-07,0.0,0 STARLINK-4125,1 53244U 22086C   24171.87795569  .00000098  00000-0  24240-4 0  9990,2 53244  53.2172 142.5557 0001769  92.7306 267.3889 15.08832362105961,6917.904,95.438,540.993,538.545,0.0
53244.0,STARLINK-4125,PAYLOAD,2024-06-20 05:01:11,15.08826188,0.0001572,53.2179,141.0694,97.1375,262.9796,-5.0679e-05,-1.094e-05,0.0,0 STARLINK-4125,1 53244U 22086C   24172.20916364 -.00001094  00000-0 -50679-4 0  9990,2 53244  53.2179 141.0694 0001572  97.1375 262.9796 15.08826188106015,6917.923,95.438,540.875,538.7,0.0
53244.0,STARLINK-4125,PAYLOAD,2024-06-20 08:11:57,15.08828682,0.0001583,53.2179,140.4744,97.1426,262.9746,-5.2542e-05,-1.124e-05,0.0,0 STARLINK-4125,1 53244U 22086C   24172.34164280 -.00001124  00000-0 -52542-4 0  9992,2 53244  53.2179 140.4744 0001583  97.1426 262.9746 15.08828682106536,6917.915,95.438,540.875,538.685,0.0
53244.0,STARLINK-4125,PAYLOAD,2024-06-21 03:16:35,15.0884003,0.0001429,53.2172,136.9051,102.4349,257.6803,-0.00010481,-1.956e-05,0.0,0 STARLINK-4125,1 53244U 22086C   24173.13651978 -.00001956  00000-0 -10481-3 0  9993,2 53244  53.2172 136.9051 0001429 102.4349 257.6803 15.08840030106157,6917.88,95.438,540.734,538.757,0.0
53244.0,STARLINK-4125,PAYLOAD,2024-06-21 08:02:44,15.08844182,0.00016,53.2172,136.0129,115.9485,244.1672,-8.2244e-05,-1.597e-05,0.0,0 STARLINK-4125,1 53244U 22086C   24173.33523611 -.00001597  00000-0 -82244-4 0  9995,2 53244  53.2172 136.0129 0001600 115.9485 244.1672 15.08844182106680,6917.868,95.437,540.839,538.626,0.0
53244.0,STARLINK-4125,PAYLOAD,2024-06-22 04:42:45,15.08834609,0.0001368,53.2168,132.1463,94.3768,265.7381,0.00013173,1.809e-05,0.0,0 STARLINK-4125,1 53244U 22086C   24174.19636121  .00001809  00000-0  13173-3 0  9999,2 53244  53.2168 132.1463 0001368  94.3768 265.7381 15.08834609106317,6917.897,95.438,540.708,538.815,0.0
53244.0,STARLINK-4125,PAYLOAD,2024-06-22 06:18:08,15.0883589,0.00014,53.2169,131.8491,95.6791,264.4361,0.00014219,1.976e-05,0.0,0 STARLINK-4125,1 53244U 22086C   24174.26260050  .00001976  00000-0  14219-3 0  9998,2 53244  53.2169 131.8491 0001400  95.6791 264.4361 15.08835890106825,6917.893,95.438,540.726,538.789,0.0
53244.0,STARLINK-4125,PAYLOAD,2024-06-23 06:08:55,15.0884021,0.000145,53.2173,127.3884,98.5983,261.5174,7.457e-05,8.99e-06,0.0,0 STARLINK-4125,1 53244U 22086C   24175.25620326  .00000899  00000-0  74570-4 0  9994,2 53244  53.2173 127.3884 0001450  98.5983 261.5174 15.08840210106479,6917.88,95.438,540.748,538.742,0.0
53244.0,STARLINK-4125,PAYLOAD,2024-06-23 20:27:24,15.08825126,0.0001381,53.2171,124.7128,102.6357,257.479,0.0002512,3.711e-05,0.0,0 STARLINK-4125,1 53244U 22086C   24175.85236982  .00003711  00000-0  25120-3 0  9993,2 53244  53.2171 124.7128 0001381 102.6357 257.4790 15.08825126106561,6917.926,95.438,540.746,538.835,0.0
53244.0,STARLINK-4125,PAYLOAD,2024-06-24 02:48:56,15.08843209,0.0001458,53.217,123.524,98.6812,261.4345,4.7631e-05,4.7e-06,0.0,0 STARLINK-4125,1 53244U 22086C   24176.11732235  .00000470  00000-0  47631-4 0  9996,2 53244  53.2170 123.5240 0001458  98.6812 261.4345 15.08843209106605,6917.871,95.437,540.744,538.727,0.0
